CCSDS_OMM_VERS = 2.0
CREATION_DATE  = 
ORIGINATOR     = 

OBJECT_NAME    = RSP-03
OBJECT_ID      = 1998-067XL
CENTER_NAME    = EARTH
REF_FRAME      = TEME
TIME_SYSTEM    = UTC
MEAN_ELEMENT_THEORY = SGP/SGP4

EPOCH          = 2026-02-03T12:52:21.713088
MEAN_MOTION    = 15.95057000
ECCENTRICITY   = .00055224
INCLINATION    = 51.6167
RA_OF_ASC_NODE = 223.4903
ARG_OF_PERICENTER = 250.4003
MEAN_ANOMALY   = 109.6408

EPHEMERIS_TYPE = 0
CLASSIFICATION_TYPE = U
NORAD_CAT_ID   = 65732
ELEMENT_SET_NO = 999
REV_AT_EPOCH   = 2150
BSTAR          = .14022962E-2
MEAN_MOTION_DOT = .558295E-2
MEAN_MOTION_DDOT = .13872123E-3

CCSDS_OMM_VERS = 2.0
CREATION_DATE  = 
ORIGINATOR     = 

OBJECT_NAME    = YOTSUBA-KULOVER
OBJECT_ID      = 1998-067XN
CENTER_NAME    = EARTH
REF_FRAME      = TEME
TIME_SYSTEM    = UTC
MEAN_ELEMENT_THEORY = SGP/SGP4

EPOCH          = 2026-02-02T23:38:06.260352
MEAN_MOTION    = 15.69363652
ECCENTRICITY   = .00042468
INCLINATION    = 51.6239
RA_OF_ASC_NODE = 235.6577
ARG_OF_PERICENTER = 213.0597
MEAN_ANOMALY   = 147.0135

EPHEMERIS_TYPE = 0
CLASSIFICATION_TYPE = U
NORAD_CAT_ID   = 65941
ELEMENT_SET_NO = 999
REV_AT_EPOCH   = 1803
BSTAR          = .89351479E-3
MEAN_MOTION_DOT = .107724E-2
MEAN_MOTION_DDOT = 0

CCSDS_OMM_VERS = 2.0
CREATION_DATE  = 
ORIGINATOR     = 

OBJECT_NAME    = BOTAN
OBJECT_ID      = 1998-067XP
CENTER_NAME    = EARTH
REF_FRAME      = TEME
TIME_SYSTEM    = UTC
MEAN_ELEMENT_THEORY = SGP/SGP4

EPOCH          = 2026-02-03T12:53:03.817536
MEAN_MOTION    = 15.81104541
ECCENTRICITY   = .00054885
INCLINATION    = 51.6184
RA_OF_ASC_NODE = 229.5572
ARG_OF_PERICENTER = 236.9526
MEAN_ANOMALY   = 123.0949

EPHEMERIS_TYPE = 0
CLASSIFICATION_TYPE = U
NORAD_CAT_ID   = 65942
ELEMENT_SET_NO = 999
REV_AT_EPOCH   = 1816
BSTAR          = .14399553E-2
MEAN_MOTION_DOT = .297373E-2
MEAN_MOTION_DDOT = 0

CCSDS_OMM_VERS = 2.0
CREATION_DATE  = 
ORIGINATOR     = 

OBJECT_NAME    = E-KAGAKU-1
OBJECT_ID      = 1998-067XQ
CENTER_NAME    = EARTH
REF_FRAME      = TEME
TIME_SYSTEM    = UTC
MEAN_ELEMENT_THEORY = SGP/SGP4

EPOCH          = 2026-02-03T13:24:02.056032
MEAN_MOTION    = 15.69429028
ECCENTRICITY   = .00031948
INCLINATION    = 51.6257
RA_OF_ASC_NODE = 232.7479
ARG_OF_PERICENTER = 229.2556
MEAN_ANOMALY   = 130.8164

EPHEMERIS_TYPE = 0
CLASSIFICATION_TYPE = U
NORAD_CAT_ID   = 65943
ELEMENT_SET_NO = 999
REV_AT_EPOCH   = 1812
BSTAR          = .95940695E-3
MEAN_MOTION_DOT = .116123E-2
MEAN_MOTION_DDOT = 0

CCSDS_OMM_VERS = 2.0
CREATION_DATE  = 
ORIGINATOR     = 

OBJECT_NAME    = HRC MONOBLOCK CAMERA
OBJECT_ID      = 1998-067XR
CENTER_NAME    = EARTH
REF_FRAME      = TEME
TIME_SYSTEM    = UTC
MEAN_ELEMENT_THEORY = SGP/SGP4

EPOCH          = 2026-02-03T13:33:01.861632
MEAN_MOTION    = 15.58676411
ECCENTRICITY   = .00004083
INCLINATION    = 51.6280
RA_OF_ASC_NODE = 237.2888
ARG_OF_PERICENTER = 5.0318
MEAN_ANOMALY   = 355.0678

EPHEMERIS_TYPE = 0
CLASSIFICATION_TYPE = U
NORAD_CAT_ID   = 66052
ELEMENT_SET_NO = 999
REV_AT_EPOCH   = 1706
BSTAR          = .59928925E-3
MEAN_MOTION_DOT = .4674E-3
MEAN_MOTION_DDOT = 0

CCSDS_OMM_VERS = 2.0
CREATION_DATE  = 
ORIGINATOR     = 

OBJECT_NAME    = HTV-X1
OBJECT_ID      = 2025-241A
CENTER_NAME    = EARTH
REF_FRAME      = TEME
TIME_SYSTEM    = UTC
MEAN_ELEMENT_THEORY = SGP/SGP4

EPOCH          = 2026-02-03T13:34:55.828416
MEAN_MOTION    = 15.48366668
ECCENTRICITY   = .00110683
INCLINATION    = 51.6309
RA_OF_ASC_NODE = 241.0439
ARG_OF_PERICENTER = 60.8200
MEAN_ANOMALY   = 299.3894

EPHEMERIS_TYPE = 0
CLASSIFICATION_TYPE = U
NORAD_CAT_ID   = 66174
ELEMENT_SET_NO = 999
REV_AT_EPOCH   = 51
BSTAR          = .19757322E-3
MEAN_MOTION_DOT = .1023E-3
MEAN_MOTION_DDOT = 0

CCSDS_OMM_VERS = 2.0
CREATION_DATE  = 
ORIGINATOR     = 

OBJECT_NAME    = SZ-21 MODULE
OBJECT_ID      = 2025-246C
CENTER_NAME    = EARTH
REF_FRAME      = TEME
TIME_SYSTEM    = UTC
MEAN_ELEMENT_THEORY = SGP/SGP4

EPOCH          = 2026-02-03T09:47:03.857856
MEAN_MOTION    = 15.65950990
ECCENTRICITY   = .00032432
INCLINATION    = 41.4756
RA_OF_ASC_NODE = 53.9721
ARG_OF_PERICENTER = 270.9806
MEAN_ANOMALY   = 89.0663

EPHEMERIS_TYPE = 0
CLASSIFICATION_TYPE = U
NORAD_CAT_ID   = 66515
ELEMENT_SET_NO = 999
REV_AT_EPOCH   = 1269
BSTAR          = .32676953E-3
MEAN_MOTION_DOT = .34121E-3
MEAN_MOTION_DDOT = 0

CCSDS_OMM_VERS = 2.0
CREATION_DATE  = 
ORIGINATOR     = 

OBJECT_NAME    = SHENZHOU-22
OBJECT_ID      = 2025-272A
CENTER_NAME    = EARTH
REF_FRAME      = TEME
TIME_SYSTEM    = UTC
MEAN_ELEMENT_THEORY = SGP/SGP4

EPOCH          = 2026-02-03T12:38:58.339968
MEAN_MOTION    = 15.59144861
ECCENTRICITY   = .00061645
INCLINATION    = 41.4674
RA_OF_ASC_NODE = 55.7893
ARG_OF_PERICENTER = 350.4992
MEAN_ANOMALY   = 9.5728

EPHEMERIS_TYPE = 0
CLASSIFICATION_TYPE = U
NORAD_CAT_ID   = 66645
ELEMENT_SET_NO = 999
REV_AT_EPOCH   = 26764
BSTAR          = .22908029E-3
MEAN_MOTION_DOT = .18163E-3
MEAN_MOTION_DDOT = 0

CCSDS_OMM_VERS = 2.0
CREATION_DATE  = 
ORIGINATOR     = 

OBJECT_NAME    = SOYUZ-MS 28
OBJECT_ID      = 2025-275A
CENTER_NAME    = EARTH
REF_FRAME      = TEME
TIME_SYSTEM    = UTC
MEAN_ELEMENT_THEORY = SGP/SGP4

EPOCH          = 2026-02-03T13:34:55.828416
MEAN_MOTION    = 15.48366668
ECCENTRICITY   = .00110683
INCLINATION    = 51.6309
RA_OF_ASC_NODE = 241.0439
ARG_OF_PERICENTER = 60.8200
MEAN_ANOMALY   = 299.3894

EPHEMERIS_TYPE = 0
CLASSIFICATION_TYPE = U
NORAD_CAT_ID   = 66664
ELEMENT_SET_NO = 999
REV_AT_EPOCH   = 128
BSTAR          = .19757322E-3
MEAN_MOTION_DOT = .1023E-3
MEAN_MOTION_DDOT = 0

CCSDS_OMM_VERS = 2.0
CREATION_DATE  = 
ORIGINATOR     = 

OBJECT_NAME    = DUPLEX
OBJECT_ID      = 1998-067XS
CENTER_NAME    = EARTH
REF_FRAME      = TEME
TIME_SYSTEM    = UTC
MEAN_ELEMENT_THEORY = SGP/SGP4

EPOCH          = 2026-02-03T06:25:56.751744
MEAN_MOTION    = 15.53773658
ECCENTRICITY   = .0001543
INCLINATION    = 51.6285
RA_OF_ASC_NODE = 241.3080
ARG_OF_PERICENTER = 83.3243
MEAN_ANOMALY   = 276.7922

EPHEMERIS_TYPE = 0
CLASSIFICATION_TYPE = U
NORAD_CAT_ID   = 66906
ELEMENT_SET_NO = 999
REV_AT_EPOCH   = 977
BSTAR          = .44815E-3
MEAN_MOTION_DOT = .28914E-3
MEAN_MOTION_DDOT = 0

CCSDS_OMM_VERS = 2.0
CREATION_DATE  = 
ORIGINATOR     = 

OBJECT_NAME    = 1998-067XT
OBJECT_ID      = 1998-067XT
CENTER_NAME    = EARTH
REF_FRAME      = TEME
TIME_SYSTEM    = UTC
MEAN_ELEMENT_THEORY = SGP/SGP4

EPOCH          = 2026-02-03T06:43:53.784768
MEAN_MOTION    = 15.60380820
ECCENTRICITY   = .0002533
INCLINATION    = 51.6261
RA_OF_ASC_NODE = 239.8896
ARG_OF_PERICENTER = 176.7926
MEAN_ANOMALY   = 183.3084

EPHEMERIS_TYPE = 0
CLASSIFICATION_TYPE = U
NORAD_CAT_ID   = 66907
ELEMENT_SET_NO = 999
REV_AT_EPOCH   = 979
BSTAR          = .11172E-2
MEAN_MOTION_DOT = .94027E-3
MEAN_MOTION_DDOT = 0

CCSDS_OMM_VERS = 2.0
CREATION_DATE  = 
ORIGINATOR     = 

OBJECT_NAME    = 1998-067XU
OBJECT_ID      = 1998-067XU
CENTER_NAME    = EARTH
REF_FRAME      = TEME
TIME_SYSTEM    = UTC
MEAN_ELEMENT_THEORY = SGP/SGP4

EPOCH          = 2026-02-01T23:58:39.340416
MEAN_MOTION    = 15.60143030
ECCENTRICITY   = .00025881
INCLINATION    = 51.6258
RA_OF_ASC_NODE = 246.3309
ARG_OF_PERICENTER = 170.0910
MEAN_ANOMALY   = 190.0135

EPHEMERIS_TYPE = 0
CLASSIFICATION_TYPE = U
NORAD_CAT_ID   = 66908
ELEMENT_SET_NO = 999
REV_AT_EPOCH   = 959
BSTAR          = .99129319E-3
MEAN_MOTION_DOT = .82493E-3
MEAN_MOTION_DDOT = 0

